NORAD_CAT_ID,OBJECT_NAME,OBJECT_TYPE,EPOCH,MEAN_MOTION,ECCENTRICITY,INCLINATION,RA_OF_ASC_NODE,ARG_OF_PERICENTER,MEAN_ANOMALY,BSTAR,MEAN_MOTION_DOT,MEAN_MOTION_DDOT,TLE_LINE0,TLE_LINE1,TLE_LINE2,SEMIMAJOR_AXIS,PERIOD,APOGEE,PERIGEE,DECAYED
55957.0,STARLINK-5884,PAYLOAD,2023-04-19 08:15:54,15.69929038,0.0002672,70.002,89.4695,254.1529,105.9373,2.7924e-05,3.147e-05,0.0,0 STARLINK-5884,1 55957U 23037AV  23109.34437974  .00003147  00000-0  27924-4 0  9995,2 55957  70.0020  89.4695 0002672 254.1529 105.9373 15.69929038  5306,6737.237,91.724,360.902,357.302,0.0
55957.0,STARLINK-5884,PAYLOAD,2023-04-19 15:54:40,15.69907914,0.0003245,70.0009,88.5706,263.9909,96.0917,-1.0483e-05,-1.472e-05,0.0,0 STARLINK-5884,1 55957U 23037AV  23109.66297301 -.00001472  00000-0 -10483-4 0  9991,2 55957  70.0009  88.5706 0003245 263.9909  96.0917 15.69907914  5351,6737.297,91.725,361.349,356.976,0.0
55957.0,STARLINK-5884,PAYLOAD,2023-04-20 01:05:10,15.69933612,0.0002964,70.0025,87.4964,267.0219,93.0637,2.0914e-05,2.304e-05,0.0,0 STARLINK-5884,1 55957U 23037AV  23110.04526180  .00002304  00000-0  20914-4 0  9998,2 55957  70.0025  87.4964 0002964 267.0219  93.0637 15.69933612  5753,6737.224,91.724,361.086,357.092,0.0
55957.0,STARLINK-5884,PAYLOAD,2023-04-20 08:43:57,15.69897321,0.0002809,70.0008,86.601,269.4757,90.6117,-3.6113e-05,-4.547e-05,0.0,0 STARLINK-5884,1 55957U 23037AV  23110.36386240 -.00004547  00000-0 -36113-4 0  9995,2 55957  70.0008  86.6010 0002809 269.4757  90.6117 15.69897321  5468,6737.328,91.726,361.085,357.3,0.0
55957.0,STARLINK-5884,PAYLOAD,2023-04-21 06:08:27,15.69934564,0.0003086,70.0012,84.0928,256.209,103.8763,2.9984e-05,3.396e-05,0.0,0 STARLINK-5884,1 55957U 23037AV  23111.25587897  .00003396  00000-0  29984-4 0  9992,2 55957  70.0012  84.0928 0003086 256.2090 103.8763 15.69934564  5943,6737.221,91.724,361.165,357.007,0.0
55957.0,STARLINK-5884,PAYLOAD,2023-04-21 21:25:59,15.69930464,0.000272,70.0012,82.3002,265.5073,94.5812,1.9102e-05,2.085e-05,0.0,0 STARLINK-5884,1 55957U 23037AV  23111.89304940  .00002085  00000-0  19102-4 0  9993,2 55957  70.0012  82.3002 0002720 265.5073  94.5812 15.69930464  5705,6737.233,91.724,360.93,357.265,0.0
55957.0,STARLINK-5884,PAYLOAD,2023-04-21 22:57:44,15.69930738,0.0002822,70.0008,82.1214,260.4685,99.6192,2.3233e-05,2.583e-05,0.0,0 STARLINK-5884,1 55957U 23037AV  23111.95676519  .00002583  00000-0  23233-4 0  9997,2 55957  70.0008  82.1214 0002822 260.4685  99.6192 15.69930738  5711,6737.232,91.724,360.998,357.196,0.0
55957.0,STARLINK-5884,PAYLOAD,2023-04-22 08:08:14,15.6993345,0.0003365,70.0014,81.0469,269.3329,90.7481,9.9221e-06,9.81e-06,0.0,0 STARLINK-5884,1 55957U 23037AV  23112.33906227  .00000981  00000-0  99221-5 0  9993,2 55957  70.0014  81.0469 0003365 269.3329  90.7481 15.69933450  5777,6737.224,91.724,361.356,356.822,0.0
55957.0,STARLINK-5884,PAYLOAD,2023-04-23 00:57:32,15.6992259,0.0003002,70.002,79.0773,245.8381,114.2501,-6.6996e-06,-1.018e-05,0.0,0 STARLINK-5884,1 55957U 23037AV  23113.03995489 -.00001018  00000-0 -66996-5 0  9996,2 55957  70.0020  79.0773 0003002 245.8381 114.2501 15.69922590  5884,6737.255,91.724,361.143,357.098,0.0
55957.0,STARLINK-5884,PAYLOAD,2023-04-23 20:50:18,15.69936483,0.0002904,70.0028,76.7494,249.7285,110.3599,2.3187e-05,2.578e-05,0.0,0 STARLINK-5884,1 55957U 23037AV  23113.86826467  .00002578  00000-0  23187-4 0  9990,2 55957  70.0028  76.7494 0002904 249.7285 110.3599 15.69936483  6018,6737.216,91.723,361.037,357.124,0.0
55957.0,STARLINK-5884,PAYLOAD,2023-04-23 23:53:48,15.69943134,0.0002815,70.0031,76.39,242.7303,117.3606,5.471e-05,6.376e-05,0.0,0 STARLINK-5884,1 55957U 23037AV  23113.99569751  .00006376  00000-0  54710-4 0  9990,2 55957  70.0031  76.3900 0002815 242.7303 117.3606 15.69943134  6034,6737.197,91.723,360.958,357.165,0.0
55957.0,STARLINK-5884,PAYLOAD,2023-04-25 00:21:51,15.69917501,0.0002868,70.0032,73.5239,238.8377,121.2538,2.4338e-06,8e-07,0.0,0 STARLINK-5884,1 55957U 23037AV  23115.01517796  .00000080  00000-0  24338-5 0  9997,2 55957  70.0032  73.5239 0002868 238.8377 121.2538 15.69917501  6198,6737.27,91.725,361.067,357.203,0.0
55957.0,STARLINK-5884,PAYLOAD,2023-04-26 06:56:53,15.69920912,0.0002995,70.0028,69.9395,261.3762,98.7094,2.0415e-05,2.242e-05,0.0,0 STARLINK-5884,1 55957U 23037AV  23116.28951165  .00002242  00000-0  20415-4 0  9992,2 55957  70.0028  69.9395 0002995 261.3762  98.7094 15.69920912  6392,6737.26,91.724,361.143,357.107,0.0
55957.0,STARLINK-5884,PAYLOAD,2023-04-26 14:35:39,15.69920713,0.0003296,70.0026,69.0454,251.2317,108.8521,4.6571e-05,5.39e-05,0.0,0 STARLINK-5884,1 55957U 23037AV  23116.60809559  .00005390  00000-0  46571-4 0  9995,2 55957  70.0026  69.0454 0003296 251.2317 108.8521 15.69920713  6449,6737.261,91.724,361.346,356.905,0.0
55957.0,STARLINK-5884,PAYLOAD,2023-04-27 14:00:01,15.69917236,0.000348,70.0017,66.3025,260.02,210.3418,-3.2612e-05,-4.131e-05,0.0,0 STARLINK-5884,1 55957U 23037AV  23117.58335648 -.00004131  00000-0 -32612-4 0  9991,2 55957  70.0017  66.3025 0003480 260.0200 210.3418 15.69917236  1307,6737.271,91.725,361.48,356.791,0.0
55957.0,STARLINK-5884,PAYLOAD,2023-04-27 21:10:40,15.69937063,0.0003564,70.0017,65.4626,255.8967,104.1833,-1.0553e-05,-1.482e-05,0.0,0 STARLINK-5884,1 55957U 23037AV  23117.88241807 -.00001482  00000-0 -10553-4 0  9993,2 55957  70.0017  65.4626 0003564 255.8967 104.1833 15.69937063  6989,6737.214,91.723,361.48,356.678,0.0
55957.0,STARLINK-5884,PAYLOAD,2023-04-28 06:21:12,15.6991427,0.0002928,70.0021,64.3881,260.3224,99.7641,-3.4596e-05,-4.368e-05,0.0,0 STARLINK-5884,1 55957U 23037AV  23118.26472830 -.00004368  00000-0 -34596-4 0  9997,2 55957  70.0021  64.3881 0002928 260.3224  99.7641 15.69914270  7044,6737.279,91.725,361.117,357.172,0.0
55957.0,STARLINK-5884,PAYLOAD,2023-04-28 20:06:58,15.69926331,0.0003423,70.001,62.776,263.0432,97.0374,1.8435e-05,2.005e-05,0.0,0 STARLINK-5884,1 55957U 23037AV  23118.83817391  .00002005  00000-0  18435-4 0  9993,2 55957  70.0010  62.7760 0003423 263.0432  97.0374 15.69926331  7137,6737.245,91.724,361.416,356.804,0.0
55957.0,STARLINK-5884,PAYLOAD,2023-04-29 05:17:28,15.69926817,0.0003328,70.0014,61.7015,265.1279,94.9536,1.2618e-05,1.305e-05,0.0,0 STARLINK-5884,1 55957U 23037AV  23119.22047362  .00001305  00000-0  12618-4 0  9999,2 55957  70.0014  61.7015 0003328 265.1279  94.9536 15.69926817  6852,6737.243,91.724,361.351,356.866,0.0
55957.0,STARLINK-5884,PAYLOAD,2023-04-29 23:38:30,15.69925559,0.0003421,70.0011,59.5514,267.8667,92.2137,1.0796e-05,1.086e-05,0.0,0 STARLINK-5884,1 55957U 23037AV  23119.98507547  .00001086  00000-0  10796-4 0  9999,2 55957  70.0011  59.5514 0003421 267.8667  92.2137 15.69925559  7314,6737.247,91.724,361.417,356.807,0.0
55957.0,STARLINK-5884,PAYLOAD,2023-04-30 05:45:30,15.6993253,0.000316,70.0012,58.8352,264.5949,95.4887,1.3622e-05,1.426e-05,0.0,0 STARLINK-5884,1 55957U 23037AV  23120.23993853  .00001426  00000-0  13622-4 0  9997,2 55957  70.0012  58.8352 0003160 264.5949  95.4887 15.69932530  7015,6737.227,91.724,361.221,356.963,0.0
55957.0,STARLINK-5884,PAYLOAD,2023-04-30 21:03:02,15.69914996,0.0003433,70.0011,57.0441,267.9792,92.1011,-6.7435e-06,-1.023e-05,0.0,0 STARLINK-5884,1 55957U 23037AV  23120.87711631 -.00001023  00000-0 -67435-5 0  9996,2 55957  70.0011  57.0441 0003433 267.9792  92.1011 15.69914996  7457,6737.277,91.725,361.455,356.829,0.0
55957.0,STARLINK-5884,PAYLOAD,2023-05-01 04:41:48,15.69925316,0.0002766,70.0023,56.1475,257.0078,103.0809,2.0208e-06,3.1e-07,0.0,0 STARLINK-5884,1 55957U 23037AV  23121.19569609  .00000031  00000-0  20208-5 0  9991,2 55957  70.0023  56.1475 0002766 257.0078 103.0809 15.69925316  7503,6737.248,91.724,360.976,357.249,0.0
55957.0,STARLINK-5884,PAYLOAD,2023-05-01 21:31:04,15.69929788,0.0003175,70.0015,54.1778,257.1064,102.9777,1.8101e-05,1.965e-05,0.0,0 STARLINK-5884,1 55957U 23037AV  23121.89657657  .00001965  00000-0  18101-4 0  9994,2 55957  70.0015  54.1778 0003175 257.1064 102.9777 15.69929788  7272,6737.235,91.724,361.239,356.961,0.0
55957.0,STARLINK-5884,PAYLOAD,2023-05-02 05:09:49,15.69935881,0.0003446,70.0006,53.2803,260.5637,99.5169,2.6673e-05,2.997e-05,0.0,0 STARLINK-5884,1 55957U 23037AV  23122.21515669  .00002997  00000-0  26673-4 0  9996,2 55957  70.0006  53.2803 0003446 260.5637  99.5169 15.69935881  7666,6737.217,91.723,361.404,356.761,0.0
55957.0,STARLINK-5884,PAYLOAD,2023-05-02 18:55:36,15.69917254,0.0003066,70.0024,51.6696,258.2208,101.8644,9.0876e-06,8.8e-06,0.0,0 STARLINK-5884,1 55957U 23037AV  23122.78861906  .00000880  00000-0  90876-5 0  9992,2 55957  70.0024  51.6696 0003066 258.2208 101.8644 15.69917254  7753,6737.271,91.725,361.201,357.07,0.0
55957.0,STARLINK-5884,PAYLOAD,2023-05-02 20:27:21,15.69913467,0.0003304,70.0025,51.4888,258.5795,101.503,7.3419e-08,-2.04e-06,0.0,0 STARLINK-5884,1 55957U 23037AV  23122.85233731 -.00000204  00000-0  73419-7 0  9996,2 55957  70.0025  51.4888 0003304 258.5795 101.5030 15.69913467  7426,6737.282,91.725,361.373,356.921,0.0
55957.0,STARLINK-5884,PAYLOAD,2023-05-03 05:37:52,15.69918564,0.0002973,70.003,50.4162,235.4286,124.6629,8.2796e-06,7.83e-06,0.0,0 STARLINK-5884,1 55957U 23037AV  23123.23463771  .00000783  00000-0  82796-5 0  9995,2 55957  70.0030  50.4162 0002973 235.4286 124.6629 15.69918564  7485,6737.267,91.725,361.135,357.129,0.0
55957.0,STARLINK-5884,PAYLOAD,2023-05-03 20:55:23,15.69933437,0.0003233,70.0025,48.624,258.2462,101.8371,3.364e-05,3.836e-05,0.0,0 STARLINK-5884,1 55957U 23037AV  23123.87179400  .00003836  00000-0  33640-4 0  9993,2 55957  70.0025  48.6240 0003233 258.2462 101.8371 15.69933437  7582,6737.224,91.724,361.268,356.911,0.0
55957.0,STARLINK-5884,PAYLOAD,2023-05-04 03:02:23,15.69933623,0.0003274,70.0024,47.9078,255.2592,104.8241,2.9365e-05,3.321e-05,0.0,0 STARLINK-5884,1 55957U 23037AV  23124.12665957  .00003321  00000-0  29365-4 0  9997,2 55957  70.0024  47.9078 0003274 255.2592 104.8241 15.69933623  7966,6737.224,91.724,361.295,356.883,0.0
